STARLINK-2133
1 17406C 21005BK  21326.08357196  .00007348  00000-0  49231-3 0  3260
2 17406  53.0536 233.3601 0001967  74.6163  58.6262 15.06392334    19
